{
  "type": "FeatureCollection",
  "features": [
    {
      "type": "Feature",
      "properties": {
        "norad_id": 36451,
        "name": "COSMOS 2251 DEB",
        "group": "cosmos-2251-debris",
        "lat": -24.33649907563297,
        "lon": 143.4226398582665,
        "alt_km": 781.5798762141221,
        "timestamp": "2025-12-23T11:34:48.557583+00:00",
        "meta_object_name": "COSMOS 2251 DEB",
        "meta_object_id": "1993-036BBA",
        "meta_epoch": "2025-12-17T15:51:47.903904",
        "meta_mean_motion": 14.18761243,
        "meta_eccentricity": 0.01833733,
        "meta_inclination": 73.9538,
        "meta_ra_of_asc_node": 326.3887,
        "meta_arg_of_pericenter": 149.6881,
        "meta_mean_anomaly": 211.5024,
        "meta_ephemeris_type": 0,
        "meta_classification_type": "U",
        "meta_norad_cat_id": 36451,
        "meta_element_set_no": 999,
        "meta_rev_at_epoch": 84295,
        "meta_bstar": 0.0004725236,
        "meta_mean_motion_dot": 1.135e-05,
        "meta_mean_motion_ddot": 0,
        "tle_line1": "1 36451U 93036BBA 25351.66097111  .00001135  00000+0  47252-3 0  9999",
        "tle_line2": "2 36451  73.9538 326.3887 0183373 149.6881 211.5024 14.18761243842955"
      },
      "geometry": {
        "type": "Point",
        "coordinates": [
          143.4226398582665,
          -24.33649907563297
        ]
      }
    },
    {
      "type": "Feature",
      "properties": {
        "norad_id": 36453,
        "name": "COSMOS 2251 DEB",
        "group": "cosmos-2251-debris",
        "lat": -32.70685896093478,
        "lon": 121.31827197130553,
        "alt_km": 702.404161859039,
        "timestamp": "2025-12-23T11:34:48.557597+00:00",
        "meta_object_name": "COSMOS 2251 DEB",
        "meta_object_id": "1993-036BBC",
        "meta_epoch": "2025-12-22T19:53:39.232320",
        "meta_mean_motion": 14.52671093,
        "meta_eccentricity": 0.00706202,
        "meta_inclination": 73.9241,
        "meta_ra_of_asc_node": 133.2304,
        "meta_arg_of_pericenter": 33.762,
        "meta_mean_anomaly": 116.2668,
        "meta_ephemeris_type": 0,
        "meta_classification_type": "U",
        "meta_norad_cat_id": 36453,
        "meta_element_set_no": 999,
        "meta_rev_at_epoch": 84614,
        "meta_bstar": 0.00082517813,
        "meta_mean_motion_dot": 3.465e-05,
        "meta_mean_motion_ddot": 0,
        "tle_line1": "1 36453U 93036BBC 25356.82892630  .00003465  00000+0  82518-3 0  9995",
        "tle_line2": "2 36453  73.9241 133.2304 0070620  33.7620 116.2668 14.52671093846142"
      },
      "geometry": {
        "type": "Point",
        "coordinates": [
          121.31827197130553,
          -32.70685896093478
        ]
      }
    },
    {
      "type": "Feature",
      "properties": {
        "norad_id": 36459,
        "name": "COSMOS 2251 DEB",
        "group": "cosmos-2251-debris",
        "lat": -46.25001781358954,
        "lon": -36.99884893376582,
        "alt_km": 852.3656415202076,
        "timestamp": "2025-12-23T11:34:48.557619+00:00",
        "meta_object_name": "COSMOS 2251 DEB",
        "meta_object_id": "1993-036BBJ",
        "meta_epoch": "2025-12-20T06:23:01.272480",
        "meta_mean_motion": 14.26454896,
        "meta_eccentricity": 0.0113312,
        "meta_inclination": 74.0464,
        "meta_ra_of_asc_node": 346.1968,
        "meta_arg_of_pericenter": 79.9168,
        "meta_mean_anomaly": 281.4741,
        "meta_ephemeris_type": 0,
        "meta_classification_type": "U",
        "meta_norad_cat_id": 36459,
        "meta_element_set_no": 999,
        "meta_rev_at_epoch": 7989,
        "meta_bstar": 0.00092616994,
        "meta_mean_motion_dot": 2.362e-05,
        "meta_mean_motion_ddot": 0,
        "tle_line1": "1 36459U 93036BBJ 25354.26598695  .00002362  00000+0  92617-3 0  9997",
        "tle_line2": "2 36459  74.0464 346.1968 0113312  79.9168 281.4741 14.26454896 79891"
      },
      "geometry": {
        "type": "Point",
        "coordinates": [
          -36.99884893376582,
          -46.25001781358954
        ]
      }
    },
    {
      "type": "Feature",
      "properties": {
        "norad_id": 36470,
        "name": "COSMOS 2251 DEB",
        "group": "cosmos-2251-debris",
        "lat": -68.98653383098318,
        "lon": 101.05054610732468,
        "alt_km": 563.6170420324652,
        "timestamp": "2025-12-23T11:34:48.557628+00:00",
        "meta_object_name": "COSMOS 2251 DEB",
        "meta_object_id": "1993-036BBV",
        "meta_epoch": "2025-12-15T00:13:00.014016",
        "meta_mean_motion": 15.07582269,
        "meta_eccentricity": 0.00222568,
        "meta_inclination": 73.8449,
        "meta_ra_of_asc_node": 249.6845,
        "meta_arg_of_pericenter": 78.1368,
        "meta_mean_anomaly": 282.2316,
        "meta_ephemeris_type": 0,
        "meta_classification_type": "U",
        "meta_norad_cat_id": 36470,
        "meta_element_set_no": 999,
        "meta_rev_at_epoch": 66128,
        "meta_bstar": 0.0018721064,
        "meta_mean_motion_dot": 0.0002872,
        "meta_mean_motion_ddot": 0,
        "tle_line1": "1 36470U 93036BBV 25349.00902794  .00028720  00000+0  18721-2 0  9994",
        "tle_line2": "2 36470  73.8449 249.6845 0022256  78.1368 282.2316 15.07582269661287"
      },
      "geometry": {
        "type": "Point",
        "coordinates": [
          101.05054610732468,
          -68.98653383098318
        ]
      }
    },
    {
      "type": "Feature",
      "properties": {
        "norad_id": 36528,
        "name": "COSMOS 2251 DEB",
        "group": "cosmos-2251-debris",
        "lat": -47.66306571085841,
        "lon": -36.02361476943753,
        "alt_km": 762.8340789144122,
        "timestamp": "2025-12-23T11:34:48.557637+00:00",
        "meta_object_name": "COSMOS 2251 DEB",
        "meta_object_id": "1993-036BCN",
        "meta_epoch": "2025-12-23T02:07:16.025088",
        "meta_mean_motion": 14.30700517,
        "meta_eccentricity": 0.0084304,
        "meta_inclination": 74.0164,
        "meta_ra_of_asc_node": 126.3587,
        "meta_arg_of_pericenter": 173.6908,
        "meta_mean_anomaly": 186.5326,
        "meta_ephemeris_type": 0,
        "meta_classification_type": "U",
        "meta_norad_cat_id": 36528,
        "meta_element_set_no": 999,
        "meta_rev_at_epoch": 64575,
        "meta_bstar": 0.0012053,
        "meta_mean_motion_dot": 3.253e-05,
        "meta_mean_motion_ddot": 0,
        "tle_line1": "1 36528U 93036BCN 25357.08837992  .00003253  00000+0  12053-2 0  9998",
        "tle_line2": "2 36528  74.0164 126.3587 0084304 173.6908 186.5326 14.30700517645759"
      },
      "geometry": {
        "type": "Point",
        "coordinates": [
          -36.02361476943753,
          -47.66306571085841
        ]
      }
    },
    {
      "type": "Feature",
      "properties": {
        "norad_id": 36533,
        "name": "COSMOS 2251 DEB",
        "group": "cosmos-2251-debris",
        "lat": 45.321914787265165,
        "lon": 111.48582594338679,
        "alt_km": 755.8361905655956,
        "timestamp": "2025-12-23T11:34:48.557646+00:00",
        "meta_object_name": "COSMOS 2251 DEB",
        "meta_object_id": "1993-036BCT",
        "meta_epoch": "2025-12-20T07:10:55.572384",
        "meta_mean_motion": 14.49841548,
        "meta_eccentricity": 0.00492519,
        "meta_inclination": 74.0124,
        "meta_ra_of_asc_node": 100.614,
        "meta_arg_of_pericenter": 248.4514,
        "meta_mean_anomaly": 111.1393,
        "meta_ephemeris_type": 0,
        "meta_classification_type": "U",
        "meta_norad_cat_id": 36533,
        "meta_element_set_no": 999,
        "meta_rev_at_epoch": 84594,
        "meta_bstar": 0.00033689925,
        "meta_mean_motion_dot": 1.292e-05,
        "meta_mean_motion_ddot": 0,
        "tle_line1": "1 36533U 93036BCT 25354.29925431  .00001292  00000+0  33690-3 0  9992",
        "tle_line2": "2 36533  74.0124 100.6140 0049251 248.4514 111.1393 14.49841548845948"
      },
      "geometry": {
        "type": "Point",
        "coordinates": [
          111.48582594338679,
          45.321914787265165
        ]
      }
    },
    {
      "type": "Feature",
      "properties": {
        "norad_id": 36539,
        "name": "COSMOS 2251 DEB",
        "group": "cosmos-2251-debris",
        "lat": -69.07338379146745,
        "lon": -96.78962215553734,
        "alt_km": 698.3539982275015,
        "timestamp": "2025-12-23T11:34:48.557655+00:00",
        "meta_object_name": "COSMOS 2251 DEB",
        "meta_object_id": "1993-036BCZ",
        "meta_epoch": "2025-12-23T03:49:47.713728",
        "meta_mean_motion": 14.59361333,
        "meta_eccentricity": 0.0026536,
        "meta_inclination": 74.0227,
        "meta_ra_of_asc_node": 35.3016,
        "meta_arg_of_pericenter": 178.4926,
        "meta_mean_anomaly": 181.6325,
        "meta_ephemeris_type": 0,
        "meta_classification_type": "U",
        "meta_norad_cat_id": 36539,
        "meta_element_set_no": 999,
        "meta_rev_at_epoch": 84099,
        "meta_bstar": 0.00063693,
        "meta_mean_motion_dot": 3e-05,
        "meta_mean_motion_ddot": 0,
        "tle_line1": "1 36539U 93036BCZ 25357.15958002  .00003000  00000+0  63693-3 0  9991",
        "tle_line2": "2 36539  74.0227  35.3016 0026536 178.4926 181.6325 14.59361333840991"
      },
      "geometry": {
        "type": "Point",
        "coordinates": [
          -96.78962215553734,
          -69.07338379146745
        ]
      }
    }
  ]
}